{"type": "FeatureCollection", "features": [ {"type": "Feature", "properties": {"norad_id": 36073, "name": "COSMOS 2251 DEB", "group": "cosmos-2251-debris", "lat": 43.63782891764242, "lon": 135.50974141657107, "alt_km": 772.1091583229227, "timestamp": "2025-12-07T22:37:43.479265+00:00", "meta": {"OBJECT_NAME": "COSMOS 2251 DEB", "OBJECT_ID": "1993-036AYL", "EPOCH": "2025-12-05T08:05:57.966144", "MEAN_MOTION": 14.34937628, "ECCENTRICITY": 0.00235374, "INCLINATION": 74.0317, "RA_OF_ASC_NODE": 336.1285, "ARG_OF_PERICENTER": 46.3529, "MEAN_ANOMALY": 313.9569, "EPHEMERIS_TYPE": 0, "CLASSIFICATION_TYPE": "U", "NORAD_CAT_ID": 36073, "ELEMENT_SET_NO": 999, "REV_AT_EPOCH": 70101, "BSTAR": 0.00039460589, "MEAN_MOTION_DOT": 1.1e-05, "MEAN_MOTION_DDOT": 0}, "tle": {"line1": "1 36073U 93036AYL 25339.33747646  .00001100  00000+0  39461-3 0  9999", "line2": "2 36073  74.0317 336.1285 0023537  46.3529 313.9569 14.34937628701012"}}, "geometry": {"type": "Point", "coordinates": [135.50974141657107, 43.63782891764242]}}, {"type": "Feature", "properties": {"norad_id": 36074, "name": "COSMOS 2251 DEB", "group": "cosmos-2251-debris", "lat": 56.5039002124475, "lon": 143.72358772176923, "alt_km": 716.9159849153702, "timestamp": "2025-12-07T22:37:43.479276+00:00", "meta": {"OBJECT_NAME": "COSMOS 2251 DEB", "OBJECT_ID": "1993-036AYM", "EPOCH": "2025-12-04T07:35:54.379968", "MEAN_MOTION": 14.43651509, "ECCENTRICITY": 0.0041318, "INCLINATION": 73.9929, "RA_OF_ASC_NODE": 356.1864, "ARG_OF_PERICENTER": 90.6412, "MEAN_ANOMALY": 269.9479, "EPHEMERIS_TYPE": 0, "CLASSIFICATION_TYPE": "U", "NORAD_CAT_ID": 36074, "ELEMENT_SET_NO": 999, "REV_AT_EPOCH": 85788, "BSTAR": 0.0017767, "MEAN_MOTION_DOT": 6.071e-05, "MEAN_MOTION_DDOT": 0}, "tle": {"line1": "1 36074U 93036AYM 25338.31660162  .00006071  00000+0  17767-2 0  9990", "line2": "2 36074  73.9929 356.1864 0041318  90.6412 269.9479 14.43651509857883"}}, "geometry": {"type": "Point", "coordinates": [143.72358772176923, 56.5039002124475]}}, {"type": "Feature", "properties": {"norad_id": 36366, "name": "COSMOS 2251 DEB", "group": "cosmos-2251-debris", "lat": -49.349013982554666, "lon": 121.25396216083409, "alt_km": 774.1115417904502, "timestamp": "2025-12-07T22:37:43.479286+00:00", "meta": {"OBJECT_NAME": "COSMOS 2251 DEB", "OBJECT_ID": "1993-036AYT", "EPOCH": "2025-12-06T13:42:50.322528", "MEAN_MOTION": 14.33288178, "ECCENTRICITY": 0.00910047, "INCLINATION": 74.0664, "RA_OF_ASC_NODE": 284.3224, "ARG_OF_PERICENTER": 313.7987, "MEAN_ANOMALY": 45.5662, "EPHEMERIS_TYPE": 0, "CLASSIFICATION_TYPE": "U", "NORAD_CAT_ID": 36366, "ELEMENT_SET_NO": 999, "REV_AT_EPOCH": 86200, "BSTAR": 0.0036082315, "MEAN_MOTION_DOT": 0.00010391, "MEAN_MOTION_DDOT": 0}, "tle": {"line1": "1 36366U 93036AYT 25340.57141577  .00010391  00000+0  36082-2 0  9990", "line2": "2 36366  74.0664 284.3224 0091004 313.7987  45.5662 14.33288178862009"}}, "geometry": {"type": "Point", "coordinates": [121.25396216083409, -49.349013982554666]}}, {"type": "Feature", "properties": {"norad_id": 36367, "name": "COSMOS 2251 DEB", "group": "cosmos-2251-debris", "lat": 3.332648362821775, "lon": -119.5363786889003, "alt_km": 817.6261208746737, "timestamp": "2025-12-07T22:37:43.479296+00:00", "meta": {"OBJECT_NAME": "COSMOS 2251 DEB", "OBJECT_ID": "1993-036AYU", "EPOCH": "2025-12-07T00:05:53.234304", "MEAN_MOTION": 13.86283423, "ECCENTRICITY": 0.02626705, "INCLINATION": 74.1028, "RA_OF_ASC_NODE": 241.0953, "ARG_OF_PERICENTER": 315.2381, "MEAN_ANOMALY": 42.7811, "EPHEMERIS_TYPE": 0, "CLASSIFICATION_TYPE": "U", "NORAD_CAT_ID": 36367, "ELEMENT_SET_NO": 999, "REV_AT_EPOCH": 57450, "BSTAR": 0.0024281157, "MEAN_MOTION_DOT": 3.657e-05, "MEAN_MOTION_DDOT": 0}, "tle": {"line1": "1 36367U 93036AYU 25341.00408836  .00003657  00000+0  24281-2 0  9999", "line2": "2 36367  74.1028 241.0953 0262670 315.2381  42.7811 13.86283423574503"}}, "geometry": {"type": "Point", "coordinates": [-119.5363786889003, 3.332648362821775]}}, {"type": "Feature", "properties": {"norad_id": 36369, "name": "COSMOS 2251 DEB", "group": "cosmos-2251-debris", "lat": 72.43387202274624, "lon": -164.66599808197773, "alt_km": 638.8836494230418, "timestamp": "2025-12-07T22:37:43.479307+00:00", "meta": {"OBJECT_NAME": "COSMOS 2251 DEB", "OBJECT_ID": "1993-036AYW", "EPOCH": "2025-12-06T13:35:50.036640", "MEAN_MOTION": 14.73392813, "ECCENTRICITY": 0.00119896, "INCLINATION": 74.0324, "RA_OF_ASC_NODE": 82.7677, "ARG_OF_PERICENTER": 162.928, "MEAN_ANOMALY": 197.2299, "EPHEMERIS_TYPE": 0, "CLASSIFICATION_TYPE": "U", "NORAD_CAT_ID": 36369, "ELEMENT_SET_NO": 999, "REV_AT_EPOCH": 85831, "BSTAR": 0.0028329417, "MEAN_MOTION_DOT": 0.00018403, "MEAN_MOTION_DDOT": 0}, "tle": {"line1": "1 36369U 93036AYW 25340.56655135  .00018403  00000+0  28329-2 0  9999", "line2": "2 36369  74.0324  82.7677 0011989 162.9280 197.2299 14.73392813858317"}}, "geometry": {"type": "Point", "coordinates": [-164.66599808197773, 72.43387202274624]}}, {"type": "Feature", "properties": {"norad_id": 36371, "name": "COSMOS 2251 DEB", "group": "cosmos-2251-debris", "lat": 55.29303762699572, "lon": -164.6918726451369, "alt_km": 660.3090695889268, "timestamp": "2025-12-07T22:37:43.479317+00:00", "meta": {"OBJECT_NAME": "COSMOS 2251 DEB", "OBJECT_ID": "1993-036AYY", "EPOCH": "2025-12-05T06:40:48.082656", "MEAN_MOTION": 14.70365383, "ECCENTRICITY": 0.00103962, "INCLINATION": 74.0126, "RA_OF_ASC_NODE": 176.0302, "ARG_OF_PERICENTER": 214.7515, "MEAN_ANOMALY": 145.2978, "EPHEMERIS_TYPE": 0, "CLASSIFICATION_TYPE": "U", "NORAD_CAT_ID": 36371, "ELEMENT_SET_NO": 999, "REV_AT_EPOCH": 71335, "BSTAR": 0.003178426, "MEAN_MOTION_DOT": 0.00019262, "MEAN_MOTION_DDOT": 0}, "tle": {"line1": "1 36371U 93036AYY 25339.27833429  .00019262  00000+0  31784-2 0  9995", "line2": "2 36371  74.0126 176.0302 0010396 214.7515 145.2978 14.70365383713350"}}, "geometry": {"type": "Point", "coordinates": [-164.6918726451369, 55.29303762699572]}}, {"type": "Feature", "properties": {"norad_id": 36379, "name": "COSMOS 2251 DEB", "group": "cosmos-2251-debris", "lat": 73.01089580041015, "lon": 65.86062693994536, "alt_km": 732.7633530213834, "timestamp": "2025-12-07T22:37:43.479328+00:00", "meta": {"OBJECT_NAME": "COSMOS 2251 DEB", "OBJECT_ID": "1993-036AZG", "EPOCH": "2025-12-07T07:27:03.180672", "MEAN_MOTION": 14.3606384, "ECCENTRICITY": 0.00445555, "INCLINATION": 74.0122, "RA_OF_ASC_NODE": 316.8063, "ARG_OF_PERICENTER": 87.3691, "MEAN_ANOMALY": 340.1835, "EPHEMERIS_TYPE": 0, "CLASSIFICATION_TYPE": "U", "NORAD_CAT_ID": 36379, "ELEMENT_SET_NO": 999, "REV_AT_EPOCH": 64750, "BSTAR": 0.00051136579, "MEAN_MOTION_DOT": 1.479e-05, "MEAN_MOTION_DDOT": 0}, "tle": {"line1": "1 36379U 93036AZG 25341.31045348  .00001479  00000+0  51137-3 0  9992", "line2": "2 36379  74.0122 316.8063 0044555  87.3691 340.1835 14.36063840647501"}}, "geometry": {"type": "Point", "coordinates": [65.86062693994536, 73.01089580041015]}}, {"type": "Feature", "properties": {"norad_id": 36385, "name": "COSMOS 2251 DEB", "group": "cosmos-2251-debris", "lat": 38.95089656348255, "lon": -29.521791595593964, "alt_km": 742.8222981162726, "timestamp": "2025-12-07T22:37:43.479339+00:00", "meta": {"OBJECT_NAME": "COSMOS 2251 DEB", "OBJECT_ID": "1993-036AZN", "EPOCH": "2025-12-06T11:45:22.359168", "MEAN_MOTION": 14.72395594, "ECCENTRICITY": 0.01411306, "INCLINATION": 73.9692, "RA_OF_ASC_NODE": 166.7572, "ARG_OF_PERICENTER": 342.6227, "MEAN_ANOMALY": 17.0138, "EPHEMERIS_TYPE": 0, "CLASSIFICATION_TYPE": "U", "NORAD_CAT_ID": 36385, "ELEMENT_SET_NO": 999, "REV_AT_EPOCH": 85010, "BSTAR": 0.002178509, "MEAN_MOTION_DOT": 0.00016158, "MEAN_MOTION_DDOT": 0}, "tle": {"line1": "1 36385U 93036AZN 25340.48984212  .00016158  00000+0  21785-2 0  9993", "line2": "2 36385  73.9692 166.7572 0141130 342.6227  17.0138 14.72395594850106"}}, "geometry": {"type": "Point", "coordinates": [-29.521791595593964, 38.95089656348255]}}, {"type": "Feature", "properties": {"norad_id": 36420, "name": "COSMOS 2251 DEB", "group": "cosmos-2251-debris", "lat": -37.683913516037926, "lon": -88.47411352782504, "alt_km": 767.0414643701042, "timestamp": "2025-12-07T22:37:43.479350+00:00", "meta": {"OBJECT_NAME": "COSMOS 2251 DEB", "OBJECT_ID": "1993-036AZT", "EPOCH": "2025-12-07T02:50:10.556736", "MEAN_MOTION": 14.36891979, "ECCENTRICITY": 0.0017843, "INCLINATION": 74.0373, "RA_OF_ASC_NODE": 285.8145, "ARG_OF_PERICENTER": 14.8376, "MEAN_ANOMALY": 1.703, "EPHEMERIS_TYPE": 0, "CLASSIFICATION_TYPE": "U", "NORAD_CAT_ID": 36420, "ELEMENT_SET_NO": 999, "REV_AT_EPOCH": 84956, "BSTAR": 0.00028426544, "MEAN_MOTION_DOT": 8.16e-06, "MEAN_MOTION_DDOT": 0}, "tle": {"line1": "1 36420U 93036AZT 25341.11817774  .00000816  00000+0  28427-3 0  9997", "line2": "2 36420  74.0373 285.8145 0017843  14.8376   1.7030 14.36891979849566"}}, "geometry": {"type": "Point", "coordinates": [-88.47411352782504, -37.683913516037926]}}, {"type": "Feature", "properties": {"norad_id": 36430, "name": "COSMOS 2251 DEB", "group": "cosmos-2251-debris", "lat": 40.22345715900874, "lon": -76.80217010374957, "alt_km": 840.512835398792, "timestamp": "2025-12-07T22:37:43.479360+00:00", "meta": {"OBJECT_NAME": "COSMOS 2251 DEB", "OBJECT_ID": "1993-036BAD", "EPOCH": "2025-12-02T02:24:06.345216", "MEAN_MOTION": 14.27749233, "ECCENTRICITY": 0.00972219, "INCLINATION": 74.0032, "RA_OF_ASC_NODE": 127.8413, "ARG_OF_PERICENTER": 280.0414, "MEAN_ANOMALY": 78.9776, "EPHEMERIS_TYPE": 0, "CLASSIFICATION_TYPE": "U", "NORAD_CAT_ID": 36430, "ELEMENT_SET_NO": 999, "REV_AT_EPOCH": 64405, "BSTAR": 0.00050130436, "MEAN_MOTION_DOT": 1.275e-05, "MEAN_MOTION_DDOT": 0}, "tle": {"line1": "1 36430U 93036BAD 25336.10007344  .00001275  00000+0  50130-3 0  9991", "line2": "2 36430  74.0032 127.8413 0097221 280.0414  78.9776 14.27749233644055"}}, "geometry": {"type": "Point", "coordinates": [-76.80217010374957, 40.22345715900874]}}]}